OBJECT_NAME,OBJECT_ID,EPOCH,MEAN_MOTION,ECCENTRICITY,INCLINATION,RA_OF_ASC_NODE,ARG_OF_PERICENTER,MEAN_ANOMALY,EPHEMERIS_TYPE,CLASSIFICATION_TYPE,NORAD_CAT_ID,ELEMENT_SET_NO,REV_AT_EPOCH,BSTAR,MEAN_MOTION_DOT,MEAN_MOTION_DDOT
CUBEBUG-2 (LO-74),2013-066AA,2026-07-22T19:55:54.501888,14.94003846,.00554637,97.8916,152.9695,269.4199,90.0665,0,U,39440,999,68231,.23220128E-3,.2488E-4,0
FUNCUBE-1 (AO-73),2013-066AE,2026-07-22T15:34:32.294496,15.09895632,.00381453,97.8301,175.8499,83.5370,277.0199,0,U,39444,999,68501,.47749242E-3,.7803E-4,0
UWE-3,2013-066AG,2026-07-22T20:07:58.402560,14.97239464,.00478226,97.8728,160.1630,198.4515,161.4974,0,U,39446,999,68291,.26485276E-3,.3075E-4,0
UNISAT-6,2014-033C,2026-07-22T05:27:56.502720,14.88387173,.00437069,97.7918,355.3341,314.1378,45.6247,0,U,40012,999,65137,.19328809E-3,.1765E-4,0
DUCHIFAT-1,2014-033M,2026-07-22T14:51:14.569632,15.72730714,.00037308,98.0416,267.9836,228.0656,132.0288,0,U,40021,999,66130,.12291282E-2,.168289E-2,0
QB50P1,2014-033R,2026-07-22T19:10:54.290208,15.18749882,.00105654,98.0975,217.4558,102.9257,257.3156,0,U,40025,999,65843,.41699772E-3,.8602E-4,0
LILACSAT-2,2015-049K,2026-07-22T22:14:04.474752,15.52569387,.00086357,97.4631,242.1478,119.0361,241.1758,0,U,40908,999,60129,.34263593E-3,.20993E-3,0
FOX-1A (AO-85),2015-058D,2026-07-22T15:10:08.718240,14.91124323,.01330069,64.7740,168.8173,42.9921,318.1491,0,U,40967,999,11885,.30732926E-3,.3443E-4,0
CAS-2T & KS-1Q,2016-066G,2026-07-22T16:47:39.865344,14.44779233,.03418362,98.3808,279.0296,22.0172,339.5310,0,U,41847,999,50992,.87291705E-4,.56E-5,0
RADFXSAT (FOX-1B),2017-073E,2026-07-22T14:12:33.856992,15.13130557,.01486257,97.4661,70.0856,205.7617,153.6161,0,U,43017,999,47074,.33568959E-3,.7742E-4,0
DIWATA-2B,2018-084H,2026-07-22T23:30:24.663168,15.00583877,.00123578,98.1226,41.7571,60.2349,300.0101,0,U,43678,999,42158,.15706256E-3,.192E-4,0
ES'HAIL 2,2018-090A,2026-07-22T20:43:38.852832,1.00273274,.00026609,0.0162,44.9609,111.0623,121.3054,0,U,43700,999,2803,0,0,0
FOX-1CLIFF (AO-95),2018-099N,2026-07-22T14:14:22.185312,15.27385023,.00079124,97.4364,263.7217,210.5948,149.4830,0,U,43770,999,41862,.45608186E-3,.12172E-3,0
ITASAT,2018-099AE,2026-07-22T03:02:44.191104,15.19439192,.00113209,97.4010,253.9464,223.4985,136.5358,0,U,43786,999,41821,.29324339E-3,.6157E-4,0
JY1SAT (JO-97),2018-099AX,2026-07-22T15:24:36.029952,15.34698158,.00073286,97.4109,266.6215,136.1267,224.0559,0,U,43803,999,41906,.56385671E-3,.18922E-3,0
UWE-4,2018-111E,2026-07-22T08:00:38.294784,15.48148910,.00074165,97.5824,133.3991,169.0004,191.1409,0,U,43880,999,41621,.6787843E-3,.35708E-3,0
TIANYAN 01,2019-093C,2026-07-22T22:07:14.248416,14.86566146,.00128859,97.7512,275.2802,335.7526,24.3082,0,U,44881,999,35672,.173885E-6,-.52E-6,0
RS-44 & BREEZE-KM R/B,2019-096E,2026-07-22T08:13:30.650304,12.79748937,.02183986,82.5245,316.3463,62.3623,299.9463,0,U,44909,999,30684,-.9832918E-5,.1E-6,0
SALSAT,2020-068K,2026-07-22T11:04:14.814912,15.30243913,.00099778,97.8868,208.6876,167.8214,192.3268,0,U,46495,999,32075,.24997179E-3,.7239E-4,0
XW-3 (CAS-9),2021-131B,2026-07-22T22:39:15.583104,14.41385847,.00040746,98.4980,296.1410,9.9533,350.1736,0,U,50466,999,24026,.86397289E-4,.236E-5,0
GREENCUBE (IO-117),2022-080E,2026-07-22T16:03:56.210112,6.42583354,.00093274,70.1381,285.9076,282.2706,77.6909,0,U,53109,999,9434,0,-.3E-7,0
UMKA 1 (RS40S),2023-091G,2026-07-22T21:10:34.976928,15.21181614,.00122385,97.5030,262.4467,3.3236,356.8079,0,U,57172,999,16943,.266595E-3,.5884E-4,0
CUBESX-HSE 3 (RS42S),2023-091N,2026-07-22T21:50:25.550880,15.32023403,.00089615,97.5072,269.9655,332.4604,27.6161,0,U,57178,999,16989,.47729478E-3,.14707E-3,0
MONITOR-3 (RS58S),2023-091Q,2026-07-22T21:13:32.490912,15.28479681,.00102102,97.5063,267.6047,341.4378,18.6487,0,U,57180,999,16974,.41927966E-3,.11568E-3,0
MONITOR-4 (RS57S),2023-091S,2026-07-22T22:14:46.356288,15.28568837,.00102109,97.5057,267.6206,341.4648,18.6218,0,U,57182,999,16975,.44116923E-3,.1221E-3,0
MONITOR-2 (RS39S),2023-091U,2026-07-22T21:12:07.141536,15.19203036,.00106253,97.5052,261.9381,357.6795,2.4388,0,U,57184,999,16937,.22310215E-3,.4633E-4,0
SVYATOBOR 1 (RS60S),2023-091X,2026-07-22T21:45:16.794432,15.27155425,.00079766,97.5069,267.9305,335.6311,24.4549,0,U,57187,999,16976,.3735134E-3,.9881E-4,0
VIZARD-METEO (RS38S),2023-091Z,2026-07-22T21:35:25.476288,15.37054578,.00051905,97.5072,274.1242,305.7013,54.3748,0,U,57189,999,17017,.54124081E-3,.19575E-3,0
POLYTECH-UNIVERSE 3 (RS46S),2023-091AB,2026-07-22T21:44:14.082720,15.19417385,.00153023,97.5028,261.4643,11.7868,348.3722,0,U,57191,999,16937,.26492543E-3,.5558E-4,0
UTMN 2 (RS27S),2023-091AP,2026-07-22T21:48:07.006752,15.32837529,.00060992,97.5068,271.6411,318.5449,41.5330,0,U,57203,999,17001,.45594754E-3,.14399E-3,0
